EUTELSAT HOTBIRD 13C    
1 33459U 08065A   26197.54509727 -.00000295  00000+0  00000+0 0  9992
2 33459   3.0239  78.8423 0003416  38.1321 323.3205  1.00270310 47640
EXPRESS-AM44            
1 33595U 09007A   26197.41031236 -.00000102  00000+0  00000+0 0  9998
2 33595   3.5364  78.0324 0003595  31.9990 320.8947  1.00271094 52571
NSS-9                   
1 33749U 09008A   26197.59350466  .00000060  00000+0  00000+0 0  9990
2 33749   1.3359  82.3649 0001915  22.2368 226.5442  1.00272554 63819
TELSTAR 11N             
1 34111U 09009A   26197.40502566 -.00000261  00000+0  00000+0 0  9999
2 34111   0.0332 268.6819 0002229 197.2926 296.5052  1.00272749 46530
WGS F2 (USA 204)        
1 34713U 09017A   26197.42374575  .00000058  00000+0  00000+0 0  9998
2 34713   0.0155  52.0586 0000273 174.8904 277.3320  1.00270637 45911
SES-7 (PROTOSTAR 2)     
1 34941U 09027A   26197.64356321 -.00000355  00000+0  00000+0 0  9996
2 34941   0.0123  49.3314 0001464 148.8884  76.1581  1.00269271 62924
MEASAT-3A               
1 35362U 09032A   26197.59975160 -.00000121  00000+0  00000+0 0  9993
2 35362   0.0303 330.3057 0002704 136.0267 203.9929  1.00271956  8324
EWS-G3 (GOES 14)        
1 35491U 09033A   26197.61804538 -.00000370  00000+0  00000+0 0  9996
2 35491   1.7637  82.6751 0001970  40.1179 158.3320  1.00097452  6888
FM-5                    
1 35493U 09034A   26197.30508036 -.00000210  00000+0  00000+0 0  9992
2 35493   0.0452 243.1296 0000529 102.7053 331.9579  1.00269724 46938
TERRESTAR-1             
1 35496U 09035A   26197.53313720 -.00000069  00000+0  00000+0 0  9997
2 35496   5.1964  48.7692 0002563  59.8767 266.6510  1.00272685 62429
ASIASAT 5               
1 35696U 09042A   26197.63011108  .00000000  00000+0  00000+0 0  9997
2 35696   0.0308  78.1022 0001448  31.0581 152.7126  1.00266299 62004
JCSAT-12 (JCSAT-RA)     
1 35755U 09044A   26197.58120987 -.00000338  00000+0  00000+0 0  9990
2 35755   0.0526 263.4611 0000839 288.7367  83.5002  1.00271575 61906
OPTUS D3                
1 35756U 09044B   26197.56642198 -.00000156  00000+0  00000+0 0  9990
2 35756   0.8927 268.1757 0003174 210.2306 176.0307  1.00271651 61867
NIMIQ 5                 
1 35873U 09050A   26197.61466050 -.00000267  00000+0  00000+0 0  9997
2 35873   0.0452 252.8213 0002599 217.5723 332.6175  1.00270427 61630
AMAZONAS 2              
1 35942U 09054A   26197.54076391 -.00000270  00000+0  00000+0 0  9999
2 35942   1.8896  82.6706 0003213  33.6051 300.7585  1.00269560 61478
COMSATBW-1              
1 35943U 09054B   26197.49627498  .00000014  00000+0  00000+0 0  9999
2 35943   0.0640 169.3468 0002690 306.3946  60.2525  1.00270288 61602
NSS-12                  
1 36032U 09058A   26197.56633069  .00000061  00000+0  00000+0 0  9994
2 36032   0.0891 269.4198 0004875 169.8971 115.9399  1.00271173 61217
THOR 6                  
1 36033U 09058B   26197.55480398  .00000000  00000+0  00000+0 0  9992
2 36033   0.0193  85.4280 0001700  32.5054  15.3437  1.00269940 61308
INTELSAT 14 (IS-14)     
1 36097U 09064A   26197.26098963 -.00000284  00000+0  00000+0 0  9995
2 36097   0.0162 343.2667 0002251 141.4450 218.3188  1.00268332 60895
EUTELSAT 36B            
1 36101U 09065A   26197.42253242  .00000101  00000+0  00000+0 0  9990
2 36101   0.5631  81.3399 0005786  34.6116  20.9290  1.00274479 61001
INTELSAT 15 (IS-15)     
1 36106U 09067A   26197.64585384 -.00000196  00000+0  00000+0 0  9991
2 36106   0.0173  10.3163 0002112 104.7268 137.0726  1.00272564 41522
WGS F3 (USA 211)        
1 36108U 09068A   26197.60062330  .00000053  00000+0  00000+0 0  9992
2 36108   0.2972  85.6357 0000642  90.7116 204.3105  1.00272022 46887
DIRECTV 12              
1 36131U 09075A   26197.60599666 -.00000114  00000+0  00000+0 0  9992
2 36131   0.0418 209.1378 0000293   3.4441 197.2818  1.00272634 46842
BEIDOU-2 G1             
1 36287U 10001A   26197.58285654 -.00000292  00000+0  00000+0 0  9998
2 36287   4.3606  60.3036 0001865 286.6017 297.7953  1.00271474 60469
SDO                     
1 36395U 10005A   26196.34409457 -.00000103  00000+0  00000+0 0  9995
2 36395  34.7081  85.9138 0001835  46.0485 182.8654  1.00277108 60342
INTELSAT 16 (IS-16)     
1 36397U 10006A   26197.25483627 -.00000255  00000+0  00000+0 0  9998
2 36397   0.0127  52.8977 0002390  85.3261 171.3870  1.00269781 59945
EWS-G2 (GOES 15)        
1 36411U 10008A   26197.49627498  .00000011  00000+0  00000+0 0  9998
2 36411   1.3565  82.4425 0005279  54.2180  39.6201  1.00268583 59935
ECHOSTAR 14             
1 36499U 10010A   26197.60278998 -.00000010  00000+0  00000+0 0  9997
2 36499   0.0445 238.3259 0001918 219.7405 294.4486  1.00271683 46842
SES-1                   
1 36516U 10016A   26197.60625666 -.00000125  00000+0  00000+0 0  9998
2 36516   0.0607 270.9874 0002439 200.5594 300.1335  1.00272021 59325
ASTRA 3B                
1 36581U 10021A   26197.55974399  .00000125  00000+0  00000+0 0  9999
2 36581   1.5427  83.1971 0004371  22.5471  53.6448  1.00270773 59167
COMSATBW-2              
1 36582U 10021B   26197.55766399  .00000079  00000+0  00000+0 0  9997
2 36582   0.0464 188.3656 0002422 307.3903  12.6485  1.00275967 59256
BEIDOU-2 G3             
1 36590U 10024A   26197.62246767 -.00000146  00000+0  00000+0 0  9995
2 36590   4.5835  61.3791 0006886 359.6463 177.0567  1.00268279 59069
