OBJECT_NAME,OBJECT_ID,EPOCH,MEAN_MOTION,ECCENTRICITY,INCLINATION,RA_OF_ASC_NODE,ARG_OF_PERICENTER,MEAN_ANOMALY,EPHEMERIS_TYPE,CLASSIFICATION_TYPE,NORAD_CAT_ID,ELEMENT_SET_NO,REV_AT_EPOCH,BSTAR,MEAN_MOTION_DOT,MEAN_MOTION_DDOT
EUTELSAT HOTBIRD 13C,2008-065A,2026-07-16T13:04:56.404128,1.00270310,.00034163,3.0239,78.8423,38.1321,323.3205,0,U,33459,999,4764,0,-.295E-5,0
EXPRESS-AM44,2009-007A,2026-07-16T09:50:50.987904,1.00271094,.00035959,3.5364,78.0324,31.9990,320.8947,0,U,33595,999,5257,0,-.102E-5,0
NSS-9,2009-008A,2026-07-16T14:14:38.802624,1.00272554,.00019157,1.3359,82.3649,22.2368,226.5442,0,U,33749,999,6381,0,.6E-6,0
TELSTAR 11N,2009-009A,2026-07-16T09:43:14.217024,1.00272749,.00022293,0.0332,268.6819,197.2926,296.5052,0,U,34111,999,4653,0,-.261E-5,0
WGS F2 (USA 204),2009-017A,2026-07-16T10:10:11.632800,1.00270637,.00002734,0.0155,52.0586,174.8904,277.3320,0,U,34713,999,4591,0,.58E-6,0
SES-7 (PROTOSTAR 2),2009-027A,2026-07-16T15:26:43.861344,1.00269271,.00014643,0.0123,49.3314,148.8884,76.1581,0,U,34941,999,6292,0,-.355E-5,0
MEASAT-3A,2009-032A,2026-07-16T14:23:38.538240,1.00271956,.00027046,0.0303,330.3057,136.0267,203.9929,0,U,35362,999,832,0,-.121E-5,0
EWS-G3 (GOES 14),2009-033A,2026-07-16T14:49:59.120832,1.00097452,.00019709,1.7637,82.6751,40.1179,158.3320,0,U,35491,999,688,0,-.37E-5,0
FM-5,2009-034A,2026-07-16T07:19:18.943104,1.00269724,.00005291,0.0452,243.1296,102.7053,331.9579,0,U,35493,999,4693,0,-.21E-5,0
TERRESTAR-1,2009-035A,2026-07-16T12:47:43.054080,1.00272685,.0002563,5.1964,48.7692,59.8767,266.6510,0,U,35496,999,6242,0,-.69E-6,0
ASIASAT 5,2009-042A,2026-07-16T15:07:21.597312,1.00266299,.00014486,0.0308,78.1022,31.0581,152.7126,0,U,35696,999,6200,0,0,0
JCSAT-12 (JCSAT-RA),2009-044A,2026-07-16T13:56:56.532768,1.00271575,.00008398,0.0526,263.4611,288.7367,83.5002,0,U,35755,999,6190,0,-.338E-5,0
OPTUS D3,2009-044B,2026-07-16T13:35:38.859072,1.00271651,.00031745,0.8927,268.1757,210.2306,176.0307,0,U,35756,999,6186,0,-.156E-5,0
NIMIQ 5,2009-050A,2026-07-16T14:45:06.667200,1.00270427,.00025991,0.0452,252.8213,217.5723,332.6175,0,U,35873,999,6163,0,-.267E-5,0
AMAZONAS 2,2009-054A,2026-07-16T12:58:42.001824,1.00269560,.00032138,1.8896,82.6706,33.6051,300.7585,0,U,35942,999,6147,0,-.27E-5,0
COMSATBW-1,2009-054B,2026-07-16T11:54:38.158272,1.00270288,.000269,0.0640,169.3468,306.3946,60.2525,0,U,35943,999,6160,0,.14E-6,0
NSS-12,2009-058A,2026-07-16T13:35:30.971616,1.00271173,.00048752,0.0891,269.4198,169.8971,115.9399,0,U,36032,999,6121,0,.61E-6,0
THOR 6,2009-058B,2026-07-16T13:18:55.063872,1.00269940,.00017006,0.0193,85.4280,32.5054,15.3437,0,U,36033,999,6130,0,0,0
INTELSAT 14 (IS-14),2009-064A,2026-07-16T06:15:49.504032,1.00268332,.00022517,0.0162,343.2667,141.4450,218.3188,0,U,36097,999,6089,0,-.284E-5,0
EUTELSAT 36B,2009-065A,2026-07-16T10:08:26.801088,1.00274479,.0005786,0.5631,81.3399,34.6116,20.9290,0,U,36101,999,6100,0,.101E-5,0
INTELSAT 15 (IS-15),2009-067A,2026-07-16T15:30:01.771776,1.00272564,.00021125,0.0173,10.3163,104.7268,137.0726,0,U,36106,999,4152,0,-.196E-5,0
WGS F3 (USA 211),2009-068A,2026-07-16T14:24:53.853120,1.00272022,.00006422,0.2972,85.6357,90.7116,204.3105,0,U,36108,999,4688,0,.53E-6,0
DIRECTV 12,2009-075A,2026-07-16T14:32:38.111424,1.00272634,.00002934,0.0418,209.1378,3.4441,197.2818,0,U,36131,999,4684,0,-.114E-5,0
BEIDOU-2 G1,2010-001A,2026-07-16T13:59:18.805056,1.00271474,.00018659,4.3606,60.3036,286.6017,297.7953,0,U,36287,999,6046,0,-.292E-5,0
SDO,2010-005A,2026-07-15T08:15:29.770848,1.00277108,.00018358,34.7081,85.9138,46.0485,182.8654,0,U,36395,999,6034,0,-.103E-5,0
INTELSAT 16 (IS-16),2010-006A,2026-07-16T06:06:57.853728,1.00269781,.00023902,0.0127,52.8977,85.3261,171.3870,0,U,36397,999,5994,0,-.255E-5,0
EWS-G2 (GOES 15),2010-008A,2026-07-16T11:54:38.158272,1.00268583,.00052793,1.3565,82.4425,54.2180,39.6201,0,U,36411,999,5993,0,.11E-6,0
ECHOSTAR 14,2010-010A,2026-07-16T14:28:01.054272,1.00271683,.00019184,0.0445,238.3259,219.7405,294.4486,0,U,36499,999,4684,0,-.1E-6,0
SES-1,2010-016A,2026-07-16T14:33:00.575424,1.00272021,.00024395,0.0607,270.9874,200.5594,300.1335,0,U,36516,999,5932,0,-.125E-5,0
ASTRA 3B,2010-021A,2026-07-16T13:26:01.880736,1.00270773,.00043714,1.5427,83.1971,22.5471,53.6448,0,U,36581,999,5916,0,.125E-5,0
COMSATBW-2,2010-021B,2026-07-16T13:23:02.168736,1.00275967,.00024224,0.0464,188.3656,307.3903,12.6485,0,U,36582,999,5925,0,.79E-6,0
BEIDOU-2 G3,2010-024A,2026-07-16T14:56:21.206688,1.00268279,.00068864,4.5835,61.3791,359.6463,177.0567,0,U,36590,999,5906,0,-.146E-5,0
